GLOBALSTAR M084         
1 38040U 11080A   25039.38657803 -.00000091  00000+0  71168-4 0  9991
2 38040  52.0008  80.5883 0000785 117.4199 255.7488 12.62261976606403
GLOBALSTAR M080         
1 38041U 11080B   25039.36084135 -.00000091  00000+0  71953-4 0  9994
2 38041  52.0059  82.2325 0000944 102.7546 270.7478 12.62276803606524
GLOBALSTAR M082         
1 38042U 11080C   25039.56344446 -.00000094  00000+0  54456-4 0  9993
2 38042  52.0089  37.0434 0000188 253.9708 262.9396 12.62272881607251
GLOBALSTAR M092         
1 38043U 11080D   25039.50532275 -.00000106  00000+0 -11520-4 0  9997
2 38043  52.0083 127.5916 0000808 122.7741 249.9034 12.62272882605708
GLOBALSTAR M090         
1 38044U 11080E   25039.43343100 -.00000094  00000+0  53855-4 0  9999
2 38044  51.9900  31.4143 0000150  66.7812  98.2416 12.62266541607353
GLOBALSTAR M086         
1 38045U 11080F   25039.38124821 -.00000086  00000+0  97349-4 0  9998
2 38045  51.9912  32.1139 0001081  48.5733 119.6415 12.62266399607295
GLOBALSTAR M097         
1 39072U 13005A   25039.13339306 -.00000082  00000+0  12051-3 0  9999
2 39072  52.0063 307.2896 0000769  51.3549 308.7386 12.62269682554512
GLOBALSTAR M093         
1 39073U 13005B   25039.10636188 -.00000073  00000+0  17100-3 0  9995
2 39073  51.9821 300.8770 0000782  50.7787 309.3149 12.62261243554468
